[
    {
        "CCSDS_OMM_VERS": "3.0",
        "COMMENT": "GENERATED VIA SPACE-TRACK.ORG API",
        "CREATION_DATE": "2025-05-04T02:26:54",
        "ORIGINATOR": "18 SPCS",
        "OBJECT_NAME": "BEIDOU 3M10",
        "OBJECT_ID": "2018-062B",
        "CENTER_NAME": "EARTH",
        "REF_FRAME": "TEME",
        "TIME_SYSTEM": "UTC",
        "MEAN_ELEMENT_THEORY": "SGP4",
        "EPOCH": "2025-05-03T06:34:41.573856",
        "MEAN_MOTION": "1.86229465",
        "ECCENTRICITY": "0.00044300",
        "INCLINATION": "54.1002",
        "RA_OF_ASC_NODE": "196.2303",
        "ARG_OF_PERICENTER": "18.3563",
        "MEAN_ANOMALY": "341.7206",
        "EPHEMERIS_TYPE": "0",
        "CLASSIFICATION_TYPE": "U",
        "NORAD_CAT_ID": "43582",
        "ELEMENT_SET_NO": "999",
        "REV_AT_EPOCH": "4600",
        "BSTAR": "0.00000000000000",
        "MEAN_MOTION_DOT": "-0.00000017",
        "MEAN_MOTION_DDOT": "0.0000000000000",
        "SEMIMAJOR_AXIS": "27906.342",
        "PERIOD": "773.240",
        "APOAPSIS": "21540.569",
        "PERIAPSIS": "21515.844",
        "OBJECT_TYPE": "PAYLOAD",
        "RCS_SIZE": "LARGE",
        "COUNTRY_CODE": "PRC",
        "LAUNCH_DATE": "2018-07-29",
        "SITE": "XSC",
        "DECAY_DATE": null,
        "FILE": "4718307",
        "GP_ID": "286799208",
        "TLE_LINE0": "0 BEIDOU 3M10",
        "TLE_LINE1": "1 43582U 18062B   25123.27409229 -.00000017  00000-0  00000-0 0  9996",
        "TLE_LINE2": "2 43582  54.1002 196.2303 0004430  18.3563 341.7206  1.86229465 46003"
    }
]